ORBCOMM FM20            
1 25416U 98046D   24137.01978531  .00003040  00000+0  11011-2 0  9998
2 25416  44.9936 259.3248 0001331 221.4993 138.5753 14.35247992347200
ORBCOMM FM16            
1 25417U 98046E   24137.53115939  .00004324  00000+0  15147-2 0  9991
2 25417  44.9932 252.6347 0003018 130.4865 229.6246 14.36244430347398
ORBCOMM FM15            
1 25418U 98046F   24137.07145008  .00003576  00000+0  12684-2 0  9992
2 25418  44.9964 258.8809 0002797 133.5705 226.5374 14.35962739347289
ORBCOMM FM14            
1 25419U 98046G   24137.05872291  .00004497  00000+0  15768-2 0  9991
2 25419  44.9954 258.0485 0001465 140.5488  29.1065 14.36134680347290
ORBCOMM FM13            
1 25420U 98046H   24137.07445045  .00003365  00000+0  12095-2 0  9991
2 25420  44.9965 262.8775 0003354  99.2921 260.8306 14.35408427347261
ORBCOMM FM21            
1 25475U 98053A   24137.30374339  .00002401  00000+0  87842-3 0  9995
2 25475  45.0092 346.1213 0000712  61.2437 298.8482 14.35334717340510
ORBCOMM FM22            
1 25476U 98053B   24136.93134029  .00002968  00000+0  10629-2 0  9990
2 25476  45.0085 345.1430 0002212  35.6469 324.4526 14.35864445340128
ORBCOMM FM23            
1 25477U 98053C   24137.54059829  .00003228  00000+0  11629-2 0  9994
2 25477  45.0095 347.4272 0001606  37.2515 322.8444 14.35386030340675
